0 FENGYUN 1C DEB
1 30177U 99025UJ  13281.74463008  .00000982  00000-0  72505-3 0  7944
2 30177 098.6269 344.7298 0489177 216.9302 267.6980 13.52264944331797
0 FENGYUN 1C DEB
1 30177U 99025UJ  13283.13659586  .00001091  00000-0  80154-3 0  7959
2 30177 098.6268 345.9465 0489251 213.3325 204.0033 13.52271904331983
0 FENGYUN 1C DEB
1 30177U 99025UJ  13284.17279797  .00001244  00000-0  90992-3 0  7968
2 30177 098.6270 346.8528 0489310 210.6501 208.4191 13.52274055332128
0 FENGYUN 1C DEB
1 30177U 99025UJ  13285.74130860  .00001172  00000-0  85882-3 0  7972
2 30177 098.6267 348.2240 0489396 206.5930 284.2242 13.52277704332331
0 FENGYUN 1C DEB
1 30177U 99025UJ  13287.43024459  .00001363  00000-0  99336-3 0  7988
2 30177 098.6263 349.7005 0489472 202.2276 226.3042 13.52282555332563
0 FENGYUN 1C DEB
1 30177U 99025UJ  13288.70040950  .00001704  00000-0  12351-2 0  7994
2 30177 098.6259 350.8109 0489522 198.9455 289.7483 13.52288941332738
0 FENGYUN 1C DEB
1 30177U 99025UJ  13290.69750127  .00001655  00000-0  11991-2 0  8006
2 30177 098.6255 352.5566 0489606 193.7817 292.0820 13.52297367333003
0 FENGYUN 1C DEB
1 30177U 99025UJ  13291.73330477  .00001705  00000-0  12345-2 0  8015
2 30177 098.6253 353.4619 0489633 191.1040 294.6530 13.52300590333144
0 FENGYUN 1C DEB
1 30177U 99025UJ  13293.73081464  .00001930  00000-0  13936-2 0  8024
2 30177 098.6252 355.2075 0489661 185.9421 299.1079 13.52307952333411
0 FENGYUN 1C DEB
1 30177U 99025UJ  13295.12760603  .00002536  00000-0  18233-2 0  8037
2 30177 098.6248 356.4283 0489563 182.3223 259.1400 13.52312123333603
